subs_full_name,subs_id,phone_no,address,lat,long
Megan Ford,36500,973 138 2701,"East Linton station, Andrew Meikle Grove, [address to be confirmed], East Linton, Lothian, XX0 0XX",55.986444,-2.661243
Debbie Austin,375,572 492 0531,"Energlyn & Churchill Park station, Llwyn-on-Street, Energlyn, Caerphilly, CF83 2QR",51.58376,-3.22973
David Johns,50600,680 856 0717,"Amerham station, Station Approach, Amersham, Buckinghamshire, HP6 5AZ",51.6742069133,-0.607590127
Cody Conner,53900,492 462 0370,"Chalfont & Latimer station, Station Approach, Little Chalfont, Buckinghamshire, HP7 9PR",51.6681092656,-0.5605191022
Brandon Anderson,54600,670 943 9357,"Chorleywood station, Station Approach, Chorleywood, Hertfordshire, WD3 5ND",51.6542489506,-0.5183116683
Andre Solis,57700,769 655 6957,"Farringdon station, Cowcross Street, Farringdon, London, EC1M 6BY",51.52053,-0.10504
Manuel Avila,59800,799 140 7507,"Harrow-on-the-Hill station, Station Approach, Harrow, Greater London, HA1 1BB",51.5790671372,-0.3359898856
Kara Edwards,68700,947 157 7423,"Station Approach, Station Approach, Rickmansworth, Hertfordshire, WD3 1QY",51.6402466027,-0.4732729561
Lindsey Zamora,990,420 167 9949,"Armadale station, Station Way, Armadale, West Lothian, EH48 3LP",55.88639,-3.685049
Philip Brown,991,994 450 8739,"Blackridge station, Westrigg Way, Blackridge, West Lothian, EH48 3BW",55.883679,-3.750483
Todd Buck,992,340 526 1169,"Caldercruix station, Millstream Crescent, Caldercruix, South Lanarkshire, ML6 7RJ",55.88791,-3.889788
Jeff Sanchez,99600,819 561 3254,"Reading Green Park station, Kirtons Farm Road, [ADDRESS TO BE CONFIRMED], Reading, Berkshire, RG2 6AE",51.4266639,-0.9996331
James Hall,100300,374 459 9976,"Bescot Stadium station, off Bescot Crescent, Bescot, West Midlands, WS1 4NH",52.56274493,-1.99110442
Daniel Frey,100400,333 117 2894,"Aston station, Lichfield Road, Aston, West Midlands, B6 7PR",52.50513897,-1.871779432
Craig Brown,100600,427 486 7299,"Birmingham Snow Hill station, Colmore Row, Birmingham, West Midlands, B3 2BJ",52.48358956,-1.899820964
Jeffrey Smith,101000,963 871 7080,"Tame Bridge Parkway station, Walsall Road, Friar Park, Wednesbury, West Midlands, WS10 0LD",52.55294368,-1.976209995
Amber Gomez,101100,371 244 1781,"Witton station, Witton Road, Birmingham, West Midlands, B6 7BA",52.51225381,-1.883989025
Miguel Fisher,101600,400 426 9070,"Cannock station, Mill Street, Cannock, Staffordshire, WS11 8NQ",52.6861758,-2.022146266
Eddie Washington,101700,944 253 9614,"Landywood station, Landywood Lane, Cheslyn Hay, Staffordshire, WS6 6JE",52.65713862,-2.020653193
Jerome Mills,101800,112 326 4108,"Bloxwich North station, Broad Lane, Bloxwich, West Midlands, WS3 2NR",52.62567399,-2.019161042
Philip Parks,1022,244 180 1166,"Haggerston station, Lee Street, Haggerston, London, E8 4DY",51.539121,-0.076443
Michael Graham,1023,697 644 1543,"Hoxton station, Geffrye Street, Hoxton, London, E2 8FF",51.531932,-0.076746
Theresa Schneider,1024,619 749 2962,"Shoreditch High Street station, Braithwaite Street, Shoreditch, London, E1 6AE",51.522922,-0.075684
Carolyn Ware,103000,448 722 3196,"Coventry station, Station Square, Coventry, West Midlands, CV1 2GT",52.40082838,-1.513460517
Jennifer Martin,103300,891 547 9468,"Hampton-in-Arden station, Station Road, Hampton-in-Arden, West Midlands, B92 0BJ",52.42904908,-1.699936619
Tammy Ward,103400,231 375 3254,"Marston Green station, Holly Lane, Marston Green, West Midlands, B37 7AB",52.46719715,-1.755614357
Kim Morris,103500,628 443 0062,"Tile Hill station, Cromwall Lane, Tile Hill, West Midlands, CV4 8AS",52.39511859,-1.596851679
Joshua Sanchez,103600,403 185 0779,"Adderley Park station, Bordesley Green Road, Birmingham, West Midlands, B9 4TG",52.48309476,-1.85593993
Barry Evans,1039,443 634 1592,"Rotherhithe station, Brunel Road, Rotherhithe, London, SE16 4LF",51.500975,-0.053555
Anthony Williams,104000,217 223 5097,"Duddeston station, Duddeston Mill Road, Duddeston, West Midlands, B7 4ST",52.48837183,-1.871386376
Thomas Gilmore,104100,284 307 7769,"Erdington station, Station Road, Erdington, West Midlands, B23 6UB",52.52847373,-1.839281877
Russell White,104200,515 658 6994,"Four Oaks station, Lichfield Road, Sutton Coldfield, West Midlands, B74 2TD",52.57979147,-1.828040569
Daniel Acosta,104300,368 695 1837,"Stechford station, Victoria Road, Stechford, West Midlands, B33 8AJ",52.48482961,-1.811034254
Thomas Tucker,104400,333 608 7609,"Sutton Coldfield station, Railway Road, Sutton Coldfield, West Midlands, B73 6AY",52.56495316,-1.824852952
Kimberly Jackson,104500,416 554 0222,"Berkswell station, Station Road, Berkswell, West Midlands, CV7 7EF",52.39589581,-1.642844919
Jeffery Hill,105600,825 357 7359,"Wilnecote station, Watling Street, Tamworth, Staffordshire, B77 5AL",52.61085797,-1.67949642
Gabriel Davis,106700,931 165 6241,"Long Buckby station, Station Road, Long Buckby, Northamptonshire, NN6 7QA",52.29472704,-1.08647082
David Greene,106900,337 317 0612,"Northampton station, Black Lion Hill, Northampton, Northamptonshire, NN1 1SP",52.23750925,-0.906652319
Lori Owens,107400,225 845 6876,"Atherstone station, Long Street, Atherstone, Warwickshire, CV9 1BH",52.5789821,-1.552812353
Gwendolyn Lawson,107700,983 527 1315,"Nuneaton station, Bond Street, Nuneaton, Warwickshire, CV11 4BU",52.52638876,-1.463873901
Christopher Gonzalez,107800,429 696 1063,"Polesworth station, Orchard Close, Polesworth, Staffordshire, B78 1BX",52.6259325,-1.609950777
Sandra Warren,1082,787 990 4034,"Shadwell station, Cable Street, Shadwell, London, E1 2QF",51.510931,-0.057454
Chris Gomez,1083,469 925 5785,"Surrey Quays station, Lower Road, Rotherhithe, London, SE16 2UF",51.492791,-0.048142
Patty Steele,108400,158 920 3452,"Rugeley Trent Valley station, Colton Road, Rugeley, Staffordshire, WS15 3HA",52.77003211,-1.92955021
Mary Strong,1085,536 545 8125,"Wapping station, Wapping High Street, Wapping, London, E1W 3PA",51.503718,-0.05632
Jennifer Cowan,108700,341 275 6664,"Rugby station, Railway Terrace, Rugby, Warwickshire, CV21 3LA",52.37910798,-1.250477907
Matthew Owens,1090,811 910 6050,"Aylesbury Vale Parkway station, Bicester Road, Aylesbury, Buckinghamshire, HP18 0PS",51.830795,-0.860787
Michelle Carr,109600,330 741 5913,"Barnt Green station, Fiery Hill Road, Barnt Green, West Midlands, B45 8PA",52.36109392,-1.992466617
Brandon Collins,109700,351 975 7237,"Jewellery Quarter station, Vyse Street, Birmingham, West Midlands, B18 6LE",52.48944377,-1.913209845
Matthew Krause,110500,431 708 0066,"Selly Oak station, Bristol Road, Selly Oak, West Midlands, B29 6DW",52.44198975,-1.935812243
Andrew King,110900,645 950 3493,"Kings Norton station, Pershore Road South, Kings Norton, West Midlands, B30 3EG",52.4134894,-1.933795298
Mia Short,111000,567 738 6171,"Longbridge station, Longbridge Lane, Birmingham, West Midlands, B31 2TW",52.39642483,-1.981291124
Susan Smith,111100,987 426 6549,"Northfield station, Quarry Lane, Northfield, West Midlands, B31 2PY",52.40819871,-1.965850518
Lisa Watkins,111200,452 862 8662,"Bournville station, Bournville Lane, Bournville, West Midlands, B30 1LG",52.4269705,-1.926421682
Elizabeth Chen,111400,432 859 7868,"Smethwick Galton Bridge station, Oldbury Road, Smethwick, West Midlands, B66 1HU",52.50179056,-1.980495105
Tammy Ramirez,112100,359 749 1880,"Water Orton station, Marsh Lane, Water Orton, Warwickshire, B46 1NE",52.51859467,-1.743097188
Jay Carpenter,112300,410 975 3311,"Portway Park & Ride station, off Portway (the A4), Shirehampton, Bristol, BS11 9QF",51.4901288,-2.6888666
Ronald Byrd,112700,393 804 1609,"Birmingham New Street station, Station Street, Birmingham, West Midlands, B2 4QA",52.47819419,-1.898360826
Luke Glover,112800,419 615 5527,"Perry Barr station, Birchfield Road, Perry Barr, West Midlands, B20 3JE",52.51649543,-1.90195665
Misty Ramirez,112900,673 928 8615,"Canley station, Canley Road, Canley, West Midlands, CV5 6BH",52.39925568,-1.547576591
April Barnes,113000,584 730 4690,"Chester Road station, Station Approach, Chester Road, Sutton Coldfield, West Midlands, B73 5JS",52.53565641,-1.832473808
Brian Perkins,113200,730 911 5118,"Gravelly Hill station, Hunton Hill, Gravelly Hill, West Midlands, B23 7NH",52.51500582,-1.852593623
Billy James,113300,508 138 5102,"Lea Hall station, Lea Hall Road, Lea Hall, West Midlands, B33 8JU",52.48065151,-1.786020071
Heather Barnett,113500,750 156 0271,"Rugeley Town station, Wharf Road, Rugeley, Staffordshire, WS15 1BL",52.75439398,-1.936835706
Becky Beasley,113800,695 685 0049,"Wylde Green station, Station Road, Wylde Green, West Midlands, B73 5LA",52.54644367,-1.831842869
Meredith Richards,114100,964 900 2535,"Bloxwich station, Croxdene Avenue, Bloxwich, West Midlands, WS3 2NY",52.61821329,-2.011476946
Christopher Salazar,114300,981 723 2702,"Coseley station, Gough Road, Coseley, West Midlands, WV14 8XP",52.5450936,-2.085779159
Vicki Bean,114500,988 956 2782,"Hamstead station, Old Walsall Road, Hamstead, West Midlands, B42 1NJ",52.53107873,-1.928901297
Ashley Washington,114800,472 256 1898,"Hednesford station, Market Street, Hednesford, Staffordshire, WS12 1AZ",52.70973133,-2.002323872
Melody Ali,114900,912 582 4967,"Sandwell & Dudley station, Bromford Road, West Bromwich, West Midlands, B70 7JD",52.50862411,-2.01174306
Bradley Turner,115000,453 872 3223,"Smethwick Rolfe Street station, Rolfe Street, Smethwick, West Midlands, B66 2AF",52.49639441,-1.97064313
Dale Erickson,115900,652 822 0120,"Tipton station, Alexandra Road, Tipton, West Midlands, DY4 8ET",52.53045253,-2.065702345
Tammy Arnold,116500,180 656 1198,"Bedworth station, Bulkington Road, Bedworth, Warwickshire, CV12 8JG",52.47931356,-1.467391189
Michelle Petersen,117600,410 972 4543,"Blake Street station, Station Approach, Sutton Coldfield, West Midlands, B74 4EB",52.604897,-1.844908831
Carolyn Bailey,117700,749 212 3218,"Lichfield City station, Station Road, Lichfield, Staffordshire, WS13 6HX",52.68038568,-1.825427009
Dawn Vasquez,117800,228 131 7672,"Shenstone station, Station Road, Shenstone, Staffordshire, WS14 0NW",52.63905886,-1.84478804
Corey Morton,117900,928 632 0245,"Butlers Lane station, Butlers Lane, Four Oaks, West Midlands, B74 4RT",52.59248151,-1.838014434
Kevin Hernandez,119500,662 866 4042,"Penkridge station, Station Road, Penkridge, Staffordshire, ST19 5AN",52.72351572,-2.119295161
Jessica Moore,119800,294 502 0096,"Alvechurch station, Station Road, Alvechurch, Worcestershire, B48 7SE",52.34608475,-1.967659996
Lisa Acosta,120800,662 508 6576,"Redditch station, Bromsgrove Road, Redditch, Worcestershire, B97 4RB",52.3063387,-1.945248706
Allison Martin,121200,614 998 9112,"Dudley Port station, Station Drive, off Dudley Port, Dudley, West Midlands, DY4 8UB",52.52466179,-2.049480314
Vincent Myers,121500,235 486 6657,"Birmingham International station, Stationlink Road, National Exhibition Centre, Birmingham, West Midlands, B40 1PA",52.45081461,-1.725863394
Mark Moreno,121600,392 779 4627,"Walsall station, Saddlers Centre, Walsall, West Midlands, WS2 9JS",52.58441036,-1.984753459
Justin Blanchard,121800,487 482 0182,"Wolverhampton station, Corn Hill, Wolverhampton, West Midlands, WV1 1LE",52.58785715,-2.119516893
Todd Marshall,122000,743 896 2134,"Goostrey station, Station Road, Goostrey, Cheshire, CW4 8PJ",53.22257407,-2.326474795
Julie Mcclure,122100,351 549 1664,"Holmes Chapel station, Station Road, Holmes Chapel, Cheshire, CW4 8AA",53.19895238,-2.351145128
David Beasley,122300,377 145 1943,"Alsager station, Sandbach Road South, Alsager, Staffordshire, ST7 2XW",53.09275298,-2.298612158
Frank Cross,122700,546 845 4355,"Congleton station, Park Lane, Congleton, Cheshire, CW12 3DE",53.15787409,-2.192581008
Christine Schroeder,122900,903 331 6972,"Kidsgrove station, Station Road, Kidsgrove, Staffordshire, ST7 1BX",53.08658326,-2.244818788
Derek Rivera,124300,711 261 3782,"Crewe station, Nantwich Road, Crewe, Cheshire, CW2 6HR",53.08964325,-2.432977174
Keith Johnson,124700,619 379 8869,"Nantwich station, Pillory Street, Nantwich, Cheshire, CW5 5SS",53.06322887,-2.519249351
Rachel Edwards,126100,341 754 4951,"Sandbach station, Station Road, Sandbach, Cheshire, CW11 3JG",53.15018835,-2.3935123
Scott Watson,126800,414 886 7823,"Stafford station, Station Road, Stafford, Staffordshire, ST16 2AA",52.80390859,-2.122036782
Samuel Martin,127900,769 424 5667,"Barlaston station, Station Road, Barlaston, Staffordshire, ST12 9DQ",52.94288578,-2.168112728
Deborah Evans,128200,887 465 7729,"Blythe Bridge station, Uttoxeter Road, Blythe Bridge, Staffordshire, ST11 9JF",52.96816538,-2.066959695
Isaiah Long,129100,243 809 5643,"Lichfield Trent Valley station, Station Approach,, off Burton Road, Lichfield, Staffordshire, WS13 6HE",52.68690855,-1.800236348
Danielle Hodges,130500,956 493 3108,"Longport station, Station Street, Longport, Staffordshire, ST6 4ND",53.04169194,-2.216225493
Daisy Carrillo,130600,768 834 3951,"Longton station, King Street, Longton, Staffordshire, ST3 1EZ",52.989671,-2.137010067
Michael Harris,131400,484 992 2742,"Stoke-on-Trent station, Station Road, Stoke-on-Trent, Staffordshire, ST4 2AA",53.00799558,-2.180988926
Brenda Norman,131600,500 601 5450,"Stone station, Station Road, Stone, Staffordshire, ST15 8ER",52.9083927,-2.155042811
Steven Hoffman,132200,397 606 5190,"Tamworth station, Victoria Road, Tamworth, Staffordshire, B79 7JT",52.63712963,-1.687269406
John Garcia,133500,586 738 8946,"Barking Riverside station, River Road, [ APPROXIMATE ADDRESS / TO BE CONFI, Barking, Greater London, IG11 0BF",51.519108,0.114764
Barbara James,134200,628 988 7034,"Uttoxeter station, Station Road, Uttoxeter, Staffordshire, ST14 8XG",52.89708125,-1.857261595
Jessica Hanson,134600,689 810 6837,"Prees station, Station Road, Prees, Shropshire, SY13 2DW",52.89965046,-2.689744248
Steven Hernandez,134700,115 759 6402,"Wem station, Aston Road, Wem, Shropshire, SY4 5AZ",52.85632741,-2.718760914
Kristi Smith,134800,508 892 0776,"Whitchurch station, Station Road, Whitchurch, Shropshire, SY13 1RL",52.96807676,-2.67147586
Jessica Moreno,135000,137 425 7638,"Wrenbury station, Station Road, Wrenbury, Cheshire, CW5 8EX",53.0197184,-2.59624734
Melanie Harris,135100,467 815 3501,"Yorton station, Station Road, Yorton, Shropshire, SY4 3EP",52.80896814,-2.736464904
Tina Palmer,135600,309 568 4307,"Norton Bridge station, Station Road, Norton Bridge, Staffordshire, ST15 0XY",52.86671919,-2.190546498
Kenneth Henderson,135700,641 993 1889,"Wedgwood station, Wedgwood Drive, Wedgwood, Staffordshire, ST12 9ER",52.95106237,-2.17082355
Philip Villa,136000,587 209 7330,"Bletchley station, Sherwood Drive, Bletchley, Buckinghamshire, MK3 6DZ",51.99534498,-0.736316135
Stephanie Mcbride,136400,599 216 8056,"Wolverton station, Stratford Road, Wolverton, Buckinghamshire, MK12 5LJ",52.06589044,-0.804264138
Jesse Mercer,137200,145 537 4786,"Cheddington station, Station Road, Cheddington, Buckinghamshire, LU7 0SQ",51.85792469,-0.662146256
Danielle Spence,137300,810 929 0221,"Leighton Buzzard station, Station Approach, Leighton Buzzard, Bedfordshire, LU7 2LY",51.91631391,-0.677001817
Laura Miller,137700,162 601 5562,"Fenny Stratford station, Simpson Road, Fenny Stratford, Buckinghamshire, MK1 1BP",51.99989996,-0.717672768
Nicholas Parker,137800,988 549 0332,"Milton Keynes Central station, 302 Eldergate, Milton Keynes, Buckinghamshire, MK9 1LA",52.03429998,-0.774142566
Nicholas Alvarez,138000,583 376 2087,"Aspley Guise station, Salford Road, Aspley Guise, Bedfordshire, MK17 8XF",52.02124786,-0.632327027
Sean Reid,138100,458 583 6600,"Bow Brickhill station, Brickhill Street, Bow Brickhill, Buckinghamshire, MK17 9JN",52.00431141,-0.696072267
Chad Smith,138400,959 687 5723,"Kempston Hardwick station, Manor Road, Kempston Hardwick, Bedfordshire, MK43 9NT",52.09223124,-0.503916852
William Scott,138600,921 311 6826,"Stewartby station, Green Lane, Stewartby, Bedfordshire, MK43 9LY",52.06909177,-0.520681291
Hannah Smith,139000,412 852 0201,"Berkhamsted station, Station Approach, Berkhamsted, Hertfordshire, HP4 2AR",51.76313738,-0.562005134
Christine Carroll,139100,829 765 4110,"Hemel Hempstead station, London Road, Hemel Hempstead, Hertfordshire, HP3 9BQ",51.74233574,-0.490764101
Crystal Flynn,139200,674 696 3001,"Kings Langley station, Station Road, Kings Langley, Hertfordshire, WD4 8LF",51.70635749,-0.438410982
Richard Parker,139300,857 550 0127,"Tring station, Station Road, Tring, Hertfordshire, HP23 5QR",51.8007459,-0.622433028
John Glass,139500,665 597 7452,"Bushey station, Pinner Road, Watford, Greater London, WD19 4EA",51.6457512678,-0.3853236425
Patricia Barber,139700,371 938 3078,"Harrow & Wealdstone station, The Bridge, High Street, Harrow, Greater London, HA3 5BP",51.5916203758,-0.3340730185
Stanley Thomas,139800,187 742 2458,"Hatch End station, Station Approach, Hatch End, Greater London, HA5 4HU",51.6101029612,-0.3695177068
Lisa Gilbert,139900,267 714 9316,"Kenton station, Kenton Road, Harrow, Greater London, HA3 0AZ",51.5814960199,-0.3171373274
Nicole Powell,140200,686 504 9915,"Watford Junction station, Station Road, Watford, Hertfordshire, WD17 1EU",51.66352959,-0.396519634
Heather Williams,140300,894 745 5793,"Watford North station, Bushey Mill Lane, Watford, Hertfordshire, WD24 7DS",51.67570486,-0.389928129
James Young,140400,401 815 1335,"Acton Central station, Churchfield Road, Acton, Greater London, W3 6BH",51.5087756014,-0.2636165401
Jeffrey Luna,140900,452 706 2113,"Gospel Oak station, Gorden House Road, Gospel Oak, Greater London, NW5 1LT",51.5553412717,-0.1507661702
Carol Robbins,141300,914 401 7455,"Hampstead Heath station, South End Road, Hampstead, Greater London, NW3 2QD",51.5558372504,-0.1651719284
Marie Jones,141500,738 926 7301,"Kilburn High Road station, Kilburn High Road, Kilburn, Greater London, NW6 5UA",51.5373672145,-0.1918709234
Jared Bates,141900,707 591 0139,"Queens Park station, Salusbury Road, West Kilburn, Greater London, NW6 6NL",51.5339715337,-0.2049825011
Gregory Mccarthy,142100,846 377 2854,"West Hampstead station, West End Lane, West Hampstead, London, NW6 2LJ",51.5474733358,-0.1911817701
Drew Brady,142200,616 848 4843,"North Wembley station, East Lane, Wembley, Greater London, HA9 7NT",51.5626022528,-0.3039843835
Matthew Cook,142300,499 924 6835,"Wembley Central station, High Road, Wembley, Greater London, HA9 7AJ",51.5523310827,-0.2964185637
Daniel Morrison,142900,765 498 5969,"Dalston Kingsland station, Kingsland High Road, Dalston, Greater London, E8 2JS",51.5482896253,-0.0757611164
Kevin Frazier,143000,383 318 3780,"Apsley station, London Road, Apsley, Hertfordshire, HP3 9SX",51.73252418,-0.462924369
Shannon Mckay,143400,486 887 6531,"Headstone Lane station, Long Lane, Harrow Weald, Greater London, HA2 6NB",51.6027314851,-0.3567854507
Alexandra Taylor,143700,626 809 3107,"Brondesbury station, Kilburn High Road, Kilburn, Greater London, NW6 7QB",51.5456328731,-0.2030812834
Mark Russell,143800,289 849 1246,"Brondesbury Park station, Brondesbury Park Road, Brondesbury, Greater London, NW6 6RP",51.5403506936,-0.2104998266
Elaine Sullivan,143900,289 189 6507,"Caledonian Road & Barnsbury station, Caledonian Road, Barnsbury, Greater London, N1 1DF",51.5433544064,-0.1151973117
Matthew Ramirez,144000,339 298 2103,"Camden Road station, Camden Road, Camden, Greater London, NW1 9LS",51.5419481621,-0.139772041
Alexis Lewis,144100,787 976 3193,"Canonbury station, Wallace Road, Canonbury, Greater London, N1 2PG",51.5483736002,-0.0919120646
Nicole Smith,144200,670 958 9908,"Carpenders Park station, Prestwick Road, Watford, Greater London, WD19 7DT",51.628350627,-0.3859416057
Tammy Ritter,1443,142 938 7548,"Dalston Junction station, Dalston Lane, Dalston, London, E8 3DE",51.544513,-0.076215
Mary Lee,144400,985 645 2048,"London Euston station, Euston Road, London, Greater London, NW1 2RT",51.52837626,-0.134558479
Amanda Cervantes,144500,408 899 7332,"Finchley Road & Frognal station, Finchley Road, West Hampstead, Greater London, NW3 6EP",51.5502716361,-0.1831375287
Carmen Smith,144700,141 923 5324,"Kensal Green station, College Road, Kensal Green, Greater London, NW10 5JT",51.5306617884,-0.2238558628
Paul Macias,144800,340 502 4551,"Kensal Rise station, Chamberlayne Road, Kensal Rise, Greater London, NW10 3JN",51.5342130446,-0.2208338296
Phyllis Alvarez,144900,605 983 4987,"Kentish Town West station, Prince Of Wales Road, Kentish Town, Greater London, NW5 3LR",51.5465556931,-0.1467955756
Bryan Brown,145100,613 187 9527,"South Hampstead station, 156 Loudoun Road, South Hampstead, Greater London, NW8 0DJ",51.5414759012,-0.1784404686
Kyle Snyder,145200,922 378 2113,"South Acton station, Palmerston Road, Acton, London, W3 8TG",51.4996997762,-0.2701569616
Scott Mckinney,145300,852 479 0214,"South Kenton station, Windermere  Avenue, Wembley, Greater London, HA9 8RB",51.570220608,-0.3084627894
Douglas Whitaker,145400,367 943 9511,"Stonebridge Park station, North Circular Road, Stonebridge Park, Greater London, NW10 0RL",51.5441168147,-0.2758280111
Amy Peters,145500,328 146 4913,"Watford High Street station, 182 Watford High Street, Watford, Hertfordshire, WD17 2NW",51.6526551364,-0.3917136888
Christopher Booth,145700,221 749 2039,"Willesden Junction station, Station Approach, Harlesden, Greater London, NW10 4UY",51.5320332397,-0.2432670615
Joseph Gonzales,146300,289 556 6023,"Great Missenden station, Station Approach, Great Missenden, Buckinghamshire, HP16 9AZ",51.70352072,-0.709137756
Jacqueline Carter,146600,478 392 7314,"Wendover station, Station Approach, Pound Street, Wendover, Buckinghamshire, HP22 6BN",51.76176123,-0.747369763
Tanya Spencer,146700,721 466 4544,"Stoke Mandeville station, Station Road, Stoke Mandeville, Buckinghamshire, HP22 5UA",51.78780029,-0.784084548
Kevin Henderson,147500,944 763 9900,"London Marylebone station, Great Central House, Melcombe Place, London, NW1 6JJ",51.5225401,-0.163627749
Sean Tate,147800,258 162 0667,"Northolt Park station, Cadogan Court, South Harrow, Greater London, UB5 4NP",51.55763535,-0.359421311
Michelle Garrett,148300,830 472 6612,"Sudbury & Harrow Road station, Harrow Road, Sudbury, Greater London, HA0 2LW",51.5545018,-0.315970143
Carolyn Shaw,148400,779 291 4846,"Sudbury Hill Harrow station, Greenford Road, Sudbury Hill, Harrow, Greater London, HA1 3RJ",51.55838698,-0.336167829
Tracy Edwards,149200,990 601 9335,"Aylesbury station, Station Way West, Aylesbury, Buckinghamshire, HP20 1RU",51.81389614,-0.815094966
Zachary Daugherty,150900,429 495 0501,"Wembley Stadium station, Wembley Hill Road, Wembley, Greater London, HA9 8BQ",51.55469663,-0.285958395
Isaac Williams,151000,636 736 7722,"Bedford St Johns station, Melbourne Street, Bedford, Bedfordshire, MK42 9AN",52.12949203,-0.467502781
Bob Bennett,151200,289 470 3294,"Bedford station, Ashburnham Road, Bedford, Bedfordshire, MK40 1DS",52.1362,-0.47944
Paul Dennis,151900,907 420 5950,"Cricklewood station, Cricklewood Lane, Cricklewood, London, NW2 1HL",51.55872,-0.21223
Brian Bridges,152100,141 147 0461,"Harlesden station, Acton Lane, Harlesden, Greater London, NW10 7AA",51.5365728794,-0.2582328517
Dennis Foster,152200,427 476 5151,"Hendon station, Station Road, Hendon, London, NW4 4PT",51.58008,-0.23867
Gary Carroll,152400,188 935 4810,"Upper Holloway station, Holloway Road, Upper Holloway, Greater London, N19 4DJ",51.563630354,-0.1290758459
Dawn Ochoa,152500,535 236 2125,"West Hampstead Thameslink station, Iverson Road, West Hampstead, Greater London, NW6 2RB",51.54862,-0.19243
Erica Burns,152700,328 647 4259,"Mill Hill Broadway station, Station Road, Mill Hill, London, NW7 2JU",51.61288,-0.24954
Christina Kelley,153200,912 151 6417,"Flitwick station, Steppingly Road, Flitwick, Bedfordshire, MK45 1AJ",52.00365,-0.49526
Karen Cantrell,153300,440 958 4012,"Harlington station, Station Road, Harlington, Bedfordshire, LU5 6LD",51.96207,-0.49568
Christie Maxwell,153400,761 907 5384,"Leagrave station, Compton Avenue, Leagrave, Bedfordshire, LU4 9BA",51.90517,-0.45851
David Roman,153600,975 987 2288,"Luton station, Station Road, Luton, Bedfordshire, LU1 2LT",51.88231,-0.41404
Autumn Burton,153700,755 616 2116,"Millbrook station, Station Road, Millbrook, Bedfordshire, MK45 2JH",52.05384836,-0.532692607
Brandon Valenzuela,153800,309 278 7312,"Ridgmont station, Station Road, Ridgmont, Bedfordshire, MK43 0XP",52.02641391,-0.594548449
Jack Hernandez,153900,849 121 7151,"Woburn Sands station, Station Road, Woburn Sands, Bedfordshire, MK17 8UD",52.01816252,-0.654077198
Monica Hopkins,154000,948 817 1771,"Pancras Road, London, Greater London, NW1 2QP",51.53242,-0.12603
Heather Young,154200,353 239 5732,"Elstree & Borehamwood station, Allum Lane, Borehamwood, Hertfordshire, WD6 3LS",51.65289,-0.2798
Heather Howard,154300,845 375 0146,"Harpenden station, Station Road, Harpenden, Hertfordshire, AL5 4SP",51.81488,-0.35198
Calvin Miller,154600,350 603 4248,"Radlett station, Station Approach, Watling Street, Radlett, Hertfordshire, WD7 7AP",51.68519,-0.31724
Kimberly Collins,154800,636 968 6793,"St Albans station, Station Way, St. Albans, Hertfordshire, AL1 5HE",51.75048,-0.32754
Daniel Pena,155300,203 691 2424,"Kentish Town station, Kentish Town Road, Kentish Town, Greater London, NW5 2AA",51.5500363746,-0.1394420761
Matthew Wells,155500,674 724 9571,"London St. Pancras International st, Pancras Road, London, Greater London, N1C 4QP",51.53062434,-0.125527439
Debra Best,155900,371 406 6943,"Garston station, Garston Lane, Garston, Hertfordshire, WD25 9RT",51.68672373,-0.381667092
Makayla Case,156000,678 219 3311,"Bricket Wood station, Station Road, Bricket Wood, Hertfordshire, AL2 3LN",51.70542949,-0.359116315
William Brooks,156100,377 897 4657,"Park Street station, Watling Street, Park Street, Hertfordshire, AL2 2NG",51.72546034,-0.340277192
Natalie Johnson,156200,458 668 1366,"St Albans Abbey station, Holywell Hill, St Albans, Hertfordshire, AL1 2DN",51.74473607,-0.342569292
Erica Clarke,156300,895 227 9118,"How Wood station, Hyde Lane, How Wood, Hertfordshire, AL2 2NG",51.71774404,-0.344671247
Chelsea Mitchell,157900,212 846 6429,"Lidlington station, Station Road, Lidlington, Bedfordshire, MK43 0SA",52.04154787,-0.558918711
Nathaniel Stewart,158100,689 657 2623,"Matlock station, Station Yard, Matlock, Derbyshire, DE4 3NA",53.13815608,-1.558986118
Julie Schultz,158200,243 822 5374,"Matlock Bath station, Dale Road, Matlock Bath, Derbyshire, DE4 5JA",53.12197042,-1.557657491
Michelle Durham,158500,454 663 4856,"Whatstandwell station, Cromford Road, Whatstandwell, Derbyshire, DE4 5HE",53.08311502,-1.504309244
Danny Vasquez,159500,449 522 0645,"Shirebrook Station, Station Road, Shirebrook, Derbyshire, NG20 8SX",53.20426177,-1.202442721